<?xml version="1.0" encoding="UTF-8"?>
<kml xmlns="http://www.opengis.net/kml/2.2">
<Document>
  <name>Алтай День 5 (6.08) — Артыбаш → Чепош</name>
  <Placemark><name>1. Озеро Ая</name><description>Тёплое озеро 22-25°C. Доступ ограничен — уточнить у Парк-отеля Ая про пляж/бассейн за плату.</description><Point><coordinates>85.8535,51.9045,0</coordinates></Point></Placemark>
  <Placemark><name>2. Манжерок — канатка на Синюху</name><description>2516 м, дети до 5 лет бесплатно. 2-3 часа.</description><Point><coordinates>85.7750,51.8283,0</coordinates></Point></Placemark>
  <Placemark><name>🏨 «Чепош Парк» 4⭐</name><description>Ночёвки 6-9 авг, 2 номера Модом Комфорт с террасой, 190 000 руб. Заезд с 15:00. Бассейн 25×16, бани, SPA. cheposhpark.ru</description><Point><coordinates>85.8500,51.5763,0</coordinates></Point></Placemark>
</Document>
</kml>
